ORBCOMM FM33            
1 25983U 99065D   25307.66546291  .00001341  00000+0  46348-3 0  9998
2 25983  45.0289  55.6716 0006720  48.1042 312.0380 14.40365594356171
ORBCOMM FM36            
1 25984U 99065E   25306.28270085  .00001267  00000+0  45688-3 0  9994
2 25984  45.0375 156.2826 0002392 287.1507  72.9080 14.38527921354303
ORBCOMM FM35            
1 25985U 99065F   25306.29360067  .00001075  00000+0  40330-3 0  9992
2 25985  45.0378 162.3786 0004307  13.8277 346.2689 14.37456677354654
ORBCOMM FM34            
1 25986U 99065G   25307.57966953  .00000903  00000+0  34644-3 0  9991
2 25986  45.0374 156.7485 0003851 333.5540  26.5111 14.37432704354958
ORBCOMM FM38            
1 33060U 08031A   25307.61161843  .00002210  00000+0  30252-3 0  9990
2 33060  48.4407  10.5154 0005597 281.4236  78.6051 14.81994620935423
ORBCOMM FM41            
1 33061U 08031B   25306.51090080  .00002123  00000+0  29468-3 0  9993
2 33061  48.4445  24.0310 0004799 262.8397 110.7908 14.81551556934744
ORBCOMM FM29            
1 33062U 08031C   25307.65809256  .00002344  00000+0  32141-3 0  9990
2 33062  48.4396  26.1905 0006496 266.1640 251.9615 14.81688011934826
ORBCOMM FM39            
1 33063U 08031D   25307.66374106  .00002088  00000+0  29971-3 0  9995
2 33063  48.4404  51.9985 0007315 238.3890 121.6312 14.80160703934458
